[{"id":"63929","name":"STARLINK-33989","tle1":"1 63929U 25098D   26176.25586387  .00004464  00000+0  38165-3 0  9992","tle2":"2 63929  70.0015   3.2933 0002826 267.3642  92.7193 14.98336752 62683"},{"id":"63930","name":"STARLINK-33980","tle1":"1 63930U 25098E   26175.94274479  .00009075  00000+0  76657-3 0  9996","tle2":"2 63930  70.0018   4.2122 0004288 265.9086  94.1583 14.98367207 62632"},{"id":"63931","name":"STARLINK-33994","tle1":"1 63931U 25098F   26176.25002315 -.00008744  00000+0 -72585-3 0  9990","tle2":"2 63931  70.0019   3.2823 0002541 266.3409  84.7435 14.98336806  5319"},{"id":"63932","name":"STARLINK-33971","tle1":"1 63932U 25098G   26175.93875926  .00003428  00000+0  29485-3 0  9994","tle2":"2 63932  70.0025   4.1958 0002945 266.4213  93.6609 14.98339841 62630"},{"id":"63933","name":"STARLINK-33877","tle1":"1 63933U 25098H   26176.22646406 -.00014920  00000+0 -12442-2 0  9992","tle2":"2 63933  70.0007   3.1783 0002670 267.7897  92.2956 14.98364109 62683"},{"id":"63934","name":"STARLINK-33895","tle1":"1 63934U 25098J   26176.23497816  .00001800  00000+0  15852-3 0  9993","tle2":"2 63934  70.0022   3.2166 0002604 272.2395  87.8465 14.98346712 62683"},{"id":"63935","name":"STARLINK-34005","tle1":"1 63935U 25098K   26175.94293234  .00003972  00000+0  34041-3 0  9992","tle2":"2 63935  70.0028   4.2015 0002982 266.6514  93.4304 14.98341695 62627"},{"id":"63936","name":"STARLINK-34027","tle1":"1 63936U 25098L   26176.21829311  .00003016  00000+0  26042-3 0  9996","tle2":"2 63936  70.0010   3.1570 0002902 266.7902  93.2925 14.98339029 62666"},{"id":"63937","name":"STARLINK-34035","tle1":"1 63937U 25098M   26176.24751295  .00002939  00000+0  25393-3 0  9996","tle2":"2 63937  70.0022   3.2608 0002906 263.6659  96.4169 14.98336947 62663"},{"id":"63938","name":"STARLINK-33988","tle1":"1 63938U 25098N   26176.25987396  .00005218  00000+0  44470-3 0  9991","tle2":"2 63938  70.0022   3.3082 0003129 267.4520  92.6281 14.98334917 62666"},{"id":"63939","name":"STARLINK-34020","tle1":"1 63939U 25098P   26176.23081704  .00002671  00000+0  23153-3 0  9993","tle2":"2 63939  70.0017   3.2028 0002888 265.7976  94.2853 14.98335638 62661"},{"id":"63940","name":"STARLINK-34021","tle1":"1 63940U 25098Q   26175.94710731  .00004657  00000+0  39770-3 0  9999","tle2":"2 63940  70.0032   4.2150 0002695 269.4152  90.6698 14.98340935 62618"},{"id":"63941","name":"STARLINK-34004","tle1":"1 63941U 25098R   26176.23916616  .00002682  00000+0  23243-3 0  9997","tle2":"2 63941  70.0011   3.2248 0002618 266.3655  93.7205 14.98335723 62664"},{"id":"63942","name":"STARLINK-34014","tle1":"1 63942U 25098S   26176.25002315 -.00005621  00000+0 -46366-3 0  9991","tle2":"2 63942  70.0017   3.2266 0002840 266.9216 130.0829 14.98328879  5126"},{"id":"63943","name":"STARLINK-33985","tle1":"1 63943U 25098T   26176.22666988  .00037620  00000+0  31473-2 0  9995","tle2":"2 63943  70.0015   3.1817 0002590 259.2077 100.8791 14.98287896 62666"},{"id":"63944","name":"STARLINK-33996","tle1":"1 63944U 25098U   26176.26003481  .00006051  00000+0  51435-3 0  9998","tle2":"2 63944  69.9983   3.3045 0002951 263.6135  96.4688 14.98342330 62668"},{"id":"63945","name":"STARLINK-34036","tle1":"1 63945U 25098V   26175.93458505  .00004292  00000+0  36719-3 0  9996","tle2":"2 63945  70.0035   4.1799 0002970 266.4106  93.6713 14.98339081 62617"},{"id":"63946","name":"STARLINK-34039","tle1":"1 63946U 25098W   26176.26421577  .00005282  00000+0  45010-3 0  9997","tle2":"2 63946  70.0024   3.3229 0003369 261.3665  98.7112 14.98329960 62661"},{"id":"63947","name":"STARLINK-34034","tle1":"1 63947U 25098X   26176.26404921  .00002004  00000+0  17567-3 0  9997","tle2":"2 63947  70.0030   3.3216 0002351 263.0266  97.0626 14.98342179 62660"},{"id":"63948","name":"STARLINK-33983","tle1":"1 63948U 25098Y   26176.24335965  .00005530  00000+0  47078-3 0  9994","tle2":"2 63948  70.0009   3.2442 0002791 262.9595  97.1246 14.98339574 62662"},{"id":"63949","name":"STARLINK-33993","tle1":"1 63949U 25098Z   26176.22246904  .00002344  00000+0  20415-3 0  9993","tle2":"2 63949  70.0009   3.1627 0002710 265.8468  94.2382 14.98337008 62657"},{"id":"63950","name":"STARLINK-33962","tle1":"1 63950U 25098AA  26176.23066311  .00005144  00000+0  43847-3 0  9993","tle2":"2 63950  70.0013   3.2002 0002596 275.2338  84.8525 14.98341211 62650"},{"id":"63951","name":"STARLINK-33998","tle1":"1 63951U 25098AB  26176.23482753  .00005055  00000+0  43103-3 0  9992","tle2":"2 63951  70.0022   3.2158 0003102 265.3633  94.7171 14.98337828 62662"},{"id":"63952","name":"STARLINK-34159","tle1":"1 63952U 25099A   26175.79709194  .00017875  00000+0  65709-3 0  9994","tle2":"2 63952  43.0007 291.6301 0001472 277.5928  82.4757 15.27601497 63708"},{"id":"63953","name":"STARLINK-34137","tle1":"1 63953U 25099B   26175.77909770  .00021788  00000+0  79840-3 0  9994","tle2":"2 63953  43.0047 291.4922 0002579 274.4649  85.5908 15.27601517 63711"},{"id":"63954","name":"STARLINK-33974","tle1":"1 63954U 25099C   26175.41248724  .00024413  00000+0  89334-3 0  9998","tle2":"2 63954  42.9992 293.9039 0001307 284.7669  75.3038 15.27593995 63653"},{"id":"63955","name":"STARLINK-34170","tle1":"1 63955U 25099D   26175.60478886  .00027211  00000+0  99386-3 0  9991","tle2":"2 63955  43.0003 292.7679 0001103 277.2773  82.7954 15.27607713 63678"},{"id":"63956","name":"STARLINK-34187","tle1":"1 63956U 25099E   26175.59836434  .00017710  00000+0  65098-3 0  9993","tle2":"2 63956  43.0000 292.7170 0001648 267.7015  92.3648 15.27609231 63684"},{"id":"63957","name":"STARLINK-34142","tle1":"1 63957U 25099F   26174.61371097 -.00027446  00000+0 -99306-3 0  9993","tle2":"2 63957  43.0027 298.2272 0001018 290.6421  69.4321 15.27530364 63532"},{"id":"63958","name":"STARLINK-34144","tle1":"1 63958U 25099G   26175.78681038  .00022999  00000+0  84221-3 0  9998","tle2":"2 63958  43.0005 291.5479 0001510 259.1535 100.9147 15.27598917 63712"}]