OBJECT_NAME,OBJECT_ID,EPOCH,MEAN_MOTION,ECCENTRICITY,INCLINATION,RA_OF_ASC_NODE,ARG_OF_PERICENTER,MEAN_ANOMALY,EPHEMERIS_TYPE,CLASSIFICATION_TYPE,NORAD_CAT_ID,ELEMENT_SET_NO,REV_AT_EPOCH,BSTAR,MEAN_MOTION_DOT,MEAN_MOTION_DDOT
STARLINK-33989,2025-098D,2026-06-25T06:08:26.638368,14.98336752,.00028266,70.0015,3.2933,267.3642,92.7193,0,U,63929,999,6268,.38164847E-3,.4464E-4,0
STARLINK-33980,2025-098E,2026-06-24T22:37:33.149856,14.98367207,.00042884,70.0018,4.2122,265.9086,94.1583,0,U,63930,999,6263,.76657076E-3,.9075E-4,0
STARLINK-33994,2025-098F,2026-06-25T06:00:02.000160,14.98336806,.00025414,70.0019,3.2823,266.3409,84.7435,0,U,63931,999,531,-.72584595E-3,-.8744E-4,0
STARLINK-33971,2025-098G,2026-06-24T22:31:48.800064,14.98339841,.00029457,70.0025,4.1958,266.4213,93.6609,0,U,63932,999,6263,.29485295E-3,.3428E-4,0
STARLINK-33877,2025-098H,2026-06-25T05:26:06.494784,14.98364109,.00026707,70.0007,3.1783,267.7897,92.2956,0,U,63933,999,6268,-.12442116E-2,-.1492E-3,0
STARLINK-33895,2025-098J,2026-06-25T05:38:22.113024,14.98346712,.00026047,70.0022,3.2166,272.2395,87.8465,0,U,63934,999,6268,.15851544E-3,.18E-4,0
STARLINK-34005,2025-098K,2026-06-24T22:37:49.354176,14.98341695,.00029829,70.0028,4.2015,266.6514,93.4304,0,U,63935,999,6262,.34041025E-3,.3972E-4,0
STARLINK-34027,2025-098L,2026-06-25T05:14:20.524704,14.98339029,.00029026,70.0010,3.1570,266.7902,93.2925,0,U,63936,999,6266,.26042353E-3,.3016E-4,0
STARLINK-34035,2025-098M,2026-06-25T05:56:25.118880,14.98336947,.00029068,70.0022,3.2608,263.6659,96.4169,0,U,63937,999,6266,.25392676E-3,.2939E-4,0
STARLINK-33988,2025-098N,2026-06-25T06:14:13.110144,14.98334917,.00031293,70.0022,3.3082,267.4520,92.6281,0,U,63938,999,6266,.44469838E-3,.5218E-4,0
STARLINK-34020,2025-098P,2026-06-25T05:32:22.592256,14.98335638,.00028887,70.0017,3.2028,265.7976,94.2853,0,U,63939,999,6266,.23152625E-3,.2671E-4,0
STARLINK-34021,2025-098Q,2026-06-24T22:43:50.071584,14.98340935,.00026952,70.0032,4.2150,269.4152,90.6698,0,U,63940,999,6261,.39769502E-3,.4657E-4,0
STARLINK-34004,2025-098R,2026-06-25T05:44:23.956224,14.98335723,.00026186,70.0011,3.2248,266.3655,93.7205,0,U,63941,999,6266,.23243263E-3,.2682E-4,0
STARLINK-34014,2025-098S,2026-06-25T06:00:02.000160,14.98328879,.00028407,70.0017,3.2266,266.9216,130.0829,0,U,63942,999,512,-.46365963E-3,-.5621E-4,0
STARLINK-33985,2025-098T,2026-06-25T05:26:24.277632,14.98287896,.00025902,70.0015,3.1817,259.2077,100.8791,0,U,63943,999,6266,.31472687E-2,.3762E-3,0
STARLINK-33996,2025-098U,2026-06-25T06:14:27.007584,14.98342330,.00029517,69.9983,3.3045,263.6135,96.4688,0,U,63944,999,6266,.51435204E-3,.6051E-4,0
STARLINK-34036,2025-098V,2026-06-24T22:25:48.148320,14.98339081,.00029708,70.0035,4.1799,266.4106,93.6713,0,U,63945,999,6261,.36719098E-3,.4292E-4,0
STARLINK-34039,2025-098W,2026-06-25T06:20:28.242528,14.98329960,.00033698,70.0024,3.3229,261.3665,98.7112,0,U,63946,999,6266,.45010309E-3,.5282E-4,0
STARLINK-34034,2025-098X,2026-06-25T06:20:13.851744,14.98342179,.00023511,70.0030,3.3216,263.0266,97.0626,0,U,63947,999,6266,.1756726E-3,.2004E-4,0
STARLINK-33983,2025-098Y,2026-06-25T05:50:26.273760,14.98339574,.00027916,70.0009,3.2442,262.9595,97.1246,0,U,63948,999,6266,.47077584E-3,.553E-4,0
STARLINK-33993,2025-098Z,2026-06-25T05:20:21.325056,14.98337008,.00027108,70.0009,3.1627,265.8468,94.2382,0,U,63949,999,6265,.20414997E-3,.2344E-4,0
STARLINK-33962,2025-098AA,2026-06-25T05:32:09.292704,14.98341211,.00025967,70.0013,3.2002,275.2338,84.8525,0,U,63950,999,6265,.4384749E-3,.5144E-4,0
STARLINK-33998,2025-098AB,2026-06-25T05:38:09.098592,14.98337828,.00031025,70.0022,3.2158,265.3633,94.7171,0,U,63951,999,6266,.43103245E-3,.5055E-4,0
STARLINK-34159,2025-099A,2026-06-24T19:07:48.743616,15.27601497,.00014726,43.0007,291.6301,277.5928,82.4757,0,U,63952,999,6370,.65709173E-3,.17875E-3,0
STARLINK-34137,2025-099B,2026-06-24T18:41:54.041280,15.27601517,.00025799,43.0047,291.4922,274.4649,85.5908,0,U,63953,999,6371,.798395E-3,.21788E-3,0
STARLINK-33974,2025-099C,2026-06-24T09:53:58.897536,15.27593995,.0001307,42.9992,293.9039,284.7669,75.3038,0,U,63954,999,6365,.89334E-3,.24413E-3,0
STARLINK-34170,2025-099D,2026-06-24T14:30:53.757504,15.27607713,.00011035,43.0003,292.7679,277.2773,82.7954,0,U,63955,999,6367,.99386015E-3,.27211E-3,0
STARLINK-34187,2025-099E,2026-06-24T14:21:38.678976,15.27609231,.00016489,43.0000,292.7170,267.7015,92.3648,0,U,63956,999,6368,.6509778E-3,.1771E-3,0
STARLINK-34142,2025-099F,2026-06-23T14:43:44.627808,15.27530364,.00010185,43.0027,298.2272,290.6421,69.4321,0,U,63957,999,6353,-.99306473E-3,-.27446E-3,0
STARLINK-34144,2025-099G,2026-06-24T18:53:00.416832,15.27598917,.00015103,43.0005,291.5479,259.1535,100.9147,0,U,63958,999,6371,.8422091E-3,.22999E-3,0
